{"type": "FeatureCollection", "features": [ {"type": "Feature", "properties": {"norad_id": 31024, "name": "FENGYUN 1C DEB", "group": "fengyun-1c-debris", "lat": 79.08709470763144, "lon": -145.41380950892378, "alt_km": 762.0123845055177, "timestamp": "2025-12-22T16:55:17.743474+00:00", "meta": {"OBJECT_NAME": "FENGYUN 1C DEB", "OBJECT_ID": "1999-025BDS", "EPOCH": "2025-12-20T05:22:46.706016", "MEAN_MOTION": 14.20867875, "ECCENTRICITY": 0.0075376, "INCLINATION": 99.0428, "RA_OF_ASC_NODE": 267.7364, "ARG_OF_PERICENTER": 103.4844, "MEAN_ANOMALY": 257.4745, "EPHEMERIS_TYPE": 0, "CLASSIFICATION_TYPE": "U", "NORAD_CAT_ID": 31024, "ELEMENT_SET_NO": 999, "REV_AT_EPOCH": 96810, "BSTAR": 0.00021416, "MEAN_MOTION_DOT": 4.31e-06, "MEAN_MOTION_DDOT": 0}, "tle": {"line1": "1 31024U 99025BDS 25354.22415169  .00000431  00000+0  21416-3 0  9998", "line2": "2 31024  99.0428 267.7364 0075376 103.4844 257.4745 14.20867875968107"}}, "geometry": {"type": "Point", "coordinates": [-145.41380950892378, 79.08709470763144]}}, {"type": "Feature", "properties": {"norad_id": 31025, "name": "FENGYUN 1C DEB", "group": "fengyun-1c-debris", "lat": -80.32588944427573, "lon": 104.27577155864783, "alt_km": 803.4898919260713, "timestamp": "2025-12-22T16:55:17.743485+00:00", "meta": {"OBJECT_NAME": "FENGYUN 1C DEB", "OBJECT_ID": "1999-025BDT", "EPOCH": "2025-12-07T05:28:07.771008", "MEAN_MOTION": 14.20521805, "ECCENTRICITY": 0.01734931, "INCLINATION": 98.58, "RA_OF_ASC_NODE": 331.5793, "ARG_OF_PERICENTER": 28.741, "MEAN_ANOMALY": 332.3194, "EPHEMERIS_TYPE": 0, "CLASSIFICATION_TYPE": "U", "NORAD_CAT_ID": 31025, "ELEMENT_SET_NO": 999, "REV_AT_EPOCH": 64287, "BSTAR": 0.0012507545, "MEAN_MOTION_DOT": 3.084e-05, "MEAN_MOTION_DDOT": 0}, "tle": {"line1": "1 31025U 99025BDT 25341.22786772  .00003084  00000+0  12508-2 0  9994", "line2": "2 31025  98.5800 331.5793 0173493  28.7410 332.3194 14.20521805642873"}}, "geometry": {"type": "Point", "coordinates": [104.27577155864783, -80.32588944427573]}}, {"type": "Feature", "properties": {"norad_id": 31026, "name": "FENGYUN 1C DEB", "group": "fengyun-1c-debris", "lat": 18.480843107872, "lon": -71.35502244768547, "alt_km": 1023.2122304648128, "timestamp": "2025-12-22T16:55:17.743496+00:00", "meta": {"OBJECT_NAME": "FENGYUN 1C DEB", "OBJECT_ID": "1999-025BDU", "EPOCH": "2025-12-16T14:07:08.116896", "MEAN_MOTION": 13.83400412, "ECCENTRICITY": 0.01344959, "INCLINATION": 98.7801, "RA_OF_ASC_NODE": 285.8947, "ARG_OF_PERICENTER": 172.0946, "MEAN_ANOMALY": 1.2766, "EPHEMERIS_TYPE": 0, "CLASSIFICATION_TYPE": "U", "NORAD_CAT_ID": 31026, "ELEMENT_SET_NO": 999, "REV_AT_EPOCH": 68079, "BSTAR": 0.00014906948, "MEAN_MOTION_DOT": 1.36e-06, "MEAN_MOTION_DDOT": 0}, "tle": {"line1": "1 31026U 99025BDU 25350.58828839  .00000136  00000+0  14907-3 0  9996", "line2": "2 31026  98.7801 285.8947 0134495 172.0946   1.2766 13.83400412680793"}}, "geometry": {"type": "Point", "coordinates": [-71.35502244768547, 18.480843107872]}}, {"type": "Feature", "properties": {"norad_id": 31028, "name": "FENGYUN 1C DEB", "group": "fengyun-1c-debris", "lat": -49.7786716412066, "lon": 97.4708199901924, "alt_km": 841.4557323583567, "timestamp": "2025-12-22T16:55:17.743506+00:00", "meta": {"OBJECT_NAME": "FENGYUN 1C DEB", "OBJECT_ID": "1999-025BDW", "EPOCH": "2025-12-16T00:45:35.214048", "MEAN_MOTION": 13.89074855, "ECCENTRICITY": 0.01643907, "INCLINATION": 98.7052, "RA_OF_ASC_NODE": 281.6698, "ARG_OF_PERICENTER": 285.3135, "MEAN_ANOMALY": 72.9908, "EPHEMERIS_TYPE": 0, "CLASSIFICATION_TYPE": "U", "NORAD_CAT_ID": 31028, "ELEMENT_SET_NO": 999, "REV_AT_EPOCH": 62049, "BSTAR": 0.0002880402, "MEAN_MOTION_DOT": 3.48e-06, "MEAN_MOTION_DDOT": 0}, "tle": {"line1": "1 31028U 99025BDW 25350.03165757  .00000348  00000+0  28804-3 0  9997", "line2": "2 31028  98.7052 281.6698 0164390 285.3135  72.9908 13.89074855620493"}}, "geometry": {"type": "Point", "coordinates": [97.4708199901924, -49.7786716412066]}}, {"type": "Feature", "properties": {"norad_id": 31029, "name": "FENGYUN 1C DEB", "group": "fengyun-1c-debris", "lat": -26.822600357663905, "lon": -101.62504172664565, "alt_km": 762.3951827224028, "timestamp": "2025-12-22T16:55:17.743516+00:00", "meta": {"OBJECT_NAME": "FENGYUN 1C DEB", "OBJECT_ID": "1999-025BDX", "EPOCH": "2025-12-20T12:17:42.853920", "MEAN_MOTION": 14.34336499, "ECCENTRICITY": 0.00900621, "INCLINATION": 98.8586, "RA_OF_ASC_NODE": 251.6054, "ARG_OF_PERICENTER": 51.2725, "MEAN_ANOMALY": 126.4832, "EPHEMERIS_TYPE": 0, "CLASSIFICATION_TYPE": "U", "NORAD_CAT_ID": 31029, "ELEMENT_SET_NO": 999, "REV_AT_EPOCH": 97907, "BSTAR": 0.00025072444, "MEAN_MOTION_DOT": 6.91e-06, "MEAN_MOTION_DDOT": 0}, "tle": {"line1": "1 31029U 99025BDX 25354.51230155  .00000691  00000+0  25072-3 0  9995", "line2": "2 31029  98.8586 251.6054 0090062  51.2725 126.4832 14.34336499979077"}}, "geometry": {"type": "Point", "coordinates": [-101.62504172664565, -26.822600357663905]}}, {"type": "Feature", "properties": {"norad_id": 31030, "name": "FENGYUN 1C DEB", "group": "fengyun-1c-debris", "lat": 44.932097732351515, "lon": -112.5521285339038, "alt_km": 804.993441325194, "timestamp": "2025-12-22T16:55:17.743529+00:00", "meta": {"OBJECT_NAME": "FENGYUN 1C DEB", "OBJECT_ID": "1999-025BDY", "EPOCH": "2025-12-22T02:53:51.199008", "MEAN_MOTION": 14.23707671, "ECCENTRICITY": 0.00272832, "INCLINATION": 98.7657, "RA_OF_ASC_NODE": 58.011, "ARG_OF_PERICENTER": 57.4585, "MEAN_ANOMALY": 323.3145, "EPHEMERIS_TYPE": 0, "CLASSIFICATION_TYPE": "U", "NORAD_CAT_ID": 31030, "ELEMENT_SET_NO": 999, "REV_AT_EPOCH": 96838, "BSTAR": 0.00084082389, "MEAN_MOTION_DOT": 1.883e-05, "MEAN_MOTION_DDOT": 0}, "tle": {"line1": "1 31030U 99025BDY 25356.12073147  .00001883  00000+0  84082-3 0  9992", "line2": "2 31030  98.7657  58.0110 0027283  57.4585 323.3145 14.23707671968385"}}, "geometry": {"type": "Point", "coordinates": [-112.5521285339038, 44.932097732351515]}}, {"type": "Feature", "properties": {"norad_id": 31031, "name": "FENGYUN 1C DEB", "group": "fengyun-1c-debris", "lat": 39.31702433903828, "lon": -93.44732075939706, "alt_km": 828.2621998075692, "timestamp": "2025-12-22T16:55:17.743539+00:00", "meta": {"OBJECT_NAME": "FENGYUN 1C DEB", "OBJECT_ID": "1999-025BDZ", "EPOCH": "2025-12-15T06:19:29.672832", "MEAN_MOTION": 14.20989204, "ECCENTRICITY": 0.00278558, "INCLINATION": 99.0717, "RA_OF_ASC_NODE": 266.4341, "ARG_OF_PERICENTER": 179.1838, "MEAN_ANOMALY": 334.5534, "EPHEMERIS_TYPE": 0, "CLASSIFICATION_TYPE": "U", "NORAD_CAT_ID": 31031, "ELEMENT_SET_NO": 999, "REV_AT_EPOCH": 96890, "BSTAR": 0.00042975182, "MEAN_MOTION_DOT": 8.88e-06, "MEAN_MOTION_DDOT": 0}, "tle": {"line1": "1 31031U 99025BDZ 25349.26353788  .00000888  00000+0  42975-3 0  9991", "line2": "2 31031  99.0717 266.4341 0027855 179.1838 334.5534 14.20989204968901"}}, "geometry": {"type": "Point", "coordinates": [-93.44732075939706, 39.31702433903828]}}, {"type": "Feature", "properties": {"norad_id": 31032, "name": "FENGYUN 1C DEB", "group": "fengyun-1c-debris", "lat": 71.52946019105252, "lon": -144.43384360836623, "alt_km": 832.0199665980317, "timestamp": "2025-12-22T16:55:17.743551+00:00", "meta": {"OBJECT_NAME": "FENGYUN 1C DEB", "OBJECT_ID": "1999-025BEA", "EPOCH": "2025-12-21T16:45:38.511360", "MEAN_MOTION": 14.02233347, "ECCENTRICITY": 0.01392314, "INCLINATION": 99.3985, "RA_OF_ASC_NODE": 4.8025, "ARG_OF_PERICENTER": 171.663, "MEAN_ANOMALY": 256.5598, "EPHEMERIS_TYPE": 0, "CLASSIFICATION_TYPE": "U", "NORAD_CAT_ID": 31032, "ELEMENT_SET_NO": 999, "REV_AT_EPOCH": 95107, "BSTAR": 0.0011606313, "MEAN_MOTION_DOT": 1.889e-05, "MEAN_MOTION_DDOT": 0}, "tle": {"line1": "1 31032U 99025BEA 25355.69836240  .00001889  00000+0  11606-2 0  9993", "line2": "2 31032  99.3985   4.8025 0139231 171.6630 256.5598 14.02233347951077"}}, "geometry": {"type": "Point", "coordinates": [-144.43384360836623, 71.52946019105252]}}, {"type": "Feature", "properties": {"norad_id": 31033, "name": "FENGYUN 1C DEB", "group": "fengyun-1c-debris", "lat": -17.336463284445806, "lon": -22.653048040224558, "alt_km": 820.3389113172334, "timestamp": "2025-12-22T16:55:17.743562+00:00", "meta": {"OBJECT_NAME": "FENGYUN 1C DEB", "OBJECT_ID": "1999-025BEB", "EPOCH": "2025-12-21T16:35:00.371328", "MEAN_MOTION": 14.27461444, "ECCENTRICITY": 0.01542537, "INCLINATION": 98.4394, "RA_OF_ASC_NODE": 333.7111, "ARG_OF_PERICENTER": 84.3373, "MEAN_ANOMALY": 91.7084, "EPHEMERIS_TYPE": 0, "CLASSIFICATION_TYPE": "U", "NORAD_CAT_ID": 31033, "ELEMENT_SET_NO": 999, "REV_AT_EPOCH": 97473, "BSTAR": 0.00016496604, "MEAN_MOTION_DOT": 4.17e-06, "MEAN_MOTION_DDOT": 0}, "tle": {"line1": "1 31033U 99025BEB 25355.69097652  .00000417  00000+0  16497-3 0  9990", "line2": "2 31033  98.4394 333.7111 0154253  84.3373  91.7084 14.27461444974732"}}, "geometry": {"type": "Point", "coordinates": [-22.653048040224558, -17.336463284445806]}}, {"type": "Feature", "properties": {"norad_id": 31036, "name": "FENGYUN 1C DEB", "group": "fengyun-1c-debris", "lat": -27.991668487284485, "lon": -81.05690848306558, "alt_km": 646.3430841231775, "timestamp": "2025-12-22T16:55:17.743572+00:00", "meta": {"OBJECT_NAME": "FENGYUN 1C DEB", "OBJECT_ID": "1999-025BEE", "EPOCH": "2025-12-21T19:07:16.550112", "MEAN_MOTION": 14.4909067, "ECCENTRICITY": 0.01376649, "INCLINATION": 98.9154, "RA_OF_ASC_NODE": 102.7697, "ARG_OF_PERICENTER": 237.1907, "MEAN_ANOMALY": 275.8802, "EPHEMERIS_TYPE": 0, "CLASSIFICATION_TYPE": "U", "NORAD_CAT_ID": 31036, "ELEMENT_SET_NO": 999, "REV_AT_EPOCH": 57438, "BSTAR": 0.00021903799, "MEAN_MOTION_DOT": 8.81e-06, "MEAN_MOTION_DDOT": 0}, "tle": {"line1": "1 31036U 99025BEE 25355.79671933  .00000881  00000+0  21904-3 0  9998", "line2": "2 31036  98.9154 102.7697 0137664 237.1907 275.8802 14.49090670574388"}}, "geometry": {"type": "Point", "coordinates": [-81.05690848306558, -27.991668487284485]}}]}